{"type":"FeatureCollection","name":"Cullowhee Creek sub-basins \u2014 INCREMENTAL (disjoint)","metadata":{"description":"Each StreamStats delineation minus every sub-basin upstream of it. The eight polygons are non-overlapping and tile the watershed exactly once. Use THIS for per-sub-basin change detection.","crs":"EPSG:4326 (WGS84)","source":"USGS StreamStats delineation, 6/2026, NC SIR 2023-5006","watershed":"Cullowhee Creek, Jackson County, North Carolina","total_area_mi2":23.41},"features":[{"type":"Feature","properties":{"id":"CC-UP-503","name":"Upper Cullowhee (Mountain)","basin_id":"CC-UP-503","coverage":"incremental","area_mi2":5.047,"area_km2":13.071,"pour_point_lat":35.2332,"pour_point_lon":-83.18689,"note":"headwater \u2014 nothing upstream to remove","excludes_upstream":null},"geometry":{"type":"Polygon","coordinates":[[[-83.22414,35.23895],[-83.22307,35.23965],[-83.22161,35.242509999999974],[-83.21965,35.24357],[-83.21556,35.244119999999974],[-83.21295,35.246269999999996],[-83.21146,35.24666000000001],[-83.20846,35.24305000000001],[-83.20596,35.243219999999944],[-83.20509,35.242009999999986],[-83.20133,35.24131999999997],[-83.19983,35.23939000000001],[-83.19694,35.23998],[-83.19596,35.23844999999999],[-83.19434,35.238339999999994],[-83.19338,35.237219999999986],[-83.19132,35.23638000000001],[-83.19123,35.23457000000004],[-83.18746,35.23355],[-83.18506,35.23197999999999],[-83.18278,35.23247],[-83.18108,35.23475999999997],[-83.17747,35.23487999999999],[-83.1763,35.235579999999985],[-83.17451,35.23408],[-83.17363,35.23056],[-83.17496,35.22704999999997],[-83.17409,35.22584],[-83.17456,35.22319],[-83.17361000000001,35.22231000000001],[-83.17601,35.22017],[-83.1762,35.217930000000045],[-83.17871,35.21585999999999],[-83.18061,35.21579999999998],[-83.18080000000002,35.213559999999944],[-83.18328,35.2129],[-83.18514,35.20995000000001],[-83.18654,35.211719999999985],[-83.18694,35.21376000000005],[-83.18926,35.21393],[-83.19074,35.21322000000002],[-83.19235,35.21325],[-83.19335,35.21123000000002],[-83.19584,35.20884000000002],[-83.20091000000001,35.209730000000036],[-83.20402,35.20773],[-83.20536,35.20438000000001],[-83.20912,35.20524000000004],[-83.21182000000002,35.206799999999994],[-83.21412,35.20671],[-83.21632,35.208369999999995],[-83.21596,35.21308999999999],[-83.21755,35.21468],[-83.21836,35.216710000000006],[-83.2184,35.22132999999999],[-83.21649,35.223380000000006],[-83.21963,35.22764],[-83.22171,35.22889000000004],[-83.22148,35.23038],[-83.22318,35.23411999999998],[-83.22335000000001,35.23733],[-83.22414,35.23895]]]}},{"type":"Feature","properties":{"id":"CC-MS-1100","name":"Mainstem above Speedwell (Mtn. Lower)","basin_id":"CC-MS-1100","coverage":"incremental","area_mi2":5.996,"area_km2":15.53,"pour_point_lat":35.28203,"pour_point_lon":-83.18599,"note":"disjoint local drainage area \u2014 upstream sub-basins removed","excludes_upstream":["CC-UP-503"]},"geometry":{"type":"MultiPolygon","coordinates":[[[[-83.21137,35.246830000000024],[-83.20988,35.24909999999999],[-83.2081,35.24965999999998],[-83.20688,35.24936999999999],[-83.20562,35.25041000000005],[-83.20234,35.251099999999994],[-83.20042,35.25091999999998],[-83.19975,35.25152],[-83.1996715614024,35.2518674948492],[-83.19948,35.25211000000001],[-83.19944632472956,35.252865310492076],[-83.19868,35.25625999999997],[-83.19648,35.25832],[-83.1943,35.25897],[-83.19447,35.26037000000002],[-83.19031,35.26356000000003],[-83.19053,35.267759999999996],[-83.18979,35.26910999999999],[-83.19029,35.27091],[-83.1888,35.27334999999999],[-83.18851,35.27559],[-83.18958,35.278689999999976],[-83.18821,35.27947999999997],[-83.18817178958594,35.27978022972257],[-83.18803,35.279889999999995],[-83.18604,35.28038],[-83.18613,35.282019999999996],[-83.18523,35.28222000000001],[-83.18356,35.28103999999999],[-83.18107,35.281370000000045],[-83.17956,35.27952999999999],[-83.17761,35.278769999999994],[-83.17415,35.276],[-83.16683,35.274519999999995],[-83.16577,35.273569999999985],[-83.16467,35.27368999999996],[-83.1637,35.27232],[-83.16111,35.27092],[-83.16212,35.269069999999985],[-83.16094,35.265649999999994],[-83.15906,35.26415],[-83.15858,35.2607],[-83.15923000000001,35.25959999999999],[-83.15741,35.257519999999985],[-83.15943,35.25374],[-83.15831,35.25147],[-83.15833,35.24997999999999],[-83.15887,35.248639999999995],[-83.16379,35.24451],[-83.16347000000002,35.24032],[-83.16592,35.2371],[-83.16584,35.23544999999999],[-83.16683,35.23533000000002],[-83.16877,35.23378],[-83.17141,35.23434999999998],[-83.17449054826062,35.23400219642119],[-83.17451,35.23408],[-83.1763,35.235579999999985],[-83.17747,35.23487999999999],[-83.18108,35.23475999999997],[-83.18278,35.23247],[-83.18506,35.23197999999999],[-83.18746,35.23355],[-83.19123,35.23457000000004],[-83.19132,35.23638000000001],[-83.19338,35.237219999999986],[-83.19434,35.238339999999994],[-83.19596,35.23844999999999],[-83.19694,35.23998],[-83.19983,35.23939000000001],[-83.20133,35.24131999999997],[-83.20509,35.242009999999986],[-83.20596,35.243219999999944],[-83.20846,35.24305000000001],[-83.21146,35.24666000000001],[-83.21295,35.246269999999996],[-83.21137,35.246830000000024]]],[[[-83.17362,35.23039999999999],[-83.17482628546713,35.22686403197273],[-83.17496,35.22704999999997],[-83.17364788554383,35.23051280041819],[-83.17362,35.23039999999999]]],[[[-83.2152262623498,35.244394927498824],[-83.21556,35.244119999999974],[-83.21965,35.24357],[-83.2152262623498,35.244394927498824]]]]}},{"type":"Feature","properties":{"id":"CC-TIL-705","name":"Tilley Creek","basin_id":"CC-TIL-705","coverage":"incremental","area_mi2":7.05,"area_km2":18.261,"pour_point_lat":35.28273,"pour_point_lon":-83.18702,"note":"headwater \u2014 nothing upstream to remove","excludes_upstream":null},"geometry":{"type":"Polygon","coordinates":[[[-83.24397,35.256659999999954],[-83.24073,35.256190000000004],[-83.23764,35.25688000000001],[-83.23691,35.26011999999999],[-83.23427,35.26162000000002],[-83.23393,35.26279],[-83.23153,35.26510000000002],[-83.22893,35.26534999999999],[-83.22615,35.26800999999997],[-83.22602,35.269420000000004],[-83.22754,35.27141999999999],[-83.22697,35.27408],[-83.22582,35.2752],[-83.22206,35.276399999999995],[-83.22496,35.27993],[-83.22527,35.28198],[-83.22248,35.28652999999999],[-83.21396,35.289060000000006],[-83.21009,35.28820000000002],[-83.20739,35.28846000000001],[-83.20406,35.290150000000025],[-83.19976,35.29070999999998],[-83.19869,35.29141],[-83.19353,35.290839999999996],[-83.19131,35.286879999999975],[-83.189,35.28497999999998],[-83.18904,35.283739999999995],[-83.18698,35.28298000000001],[-83.18693,35.28198999999998],[-83.188,35.28112999999997],[-83.18821,35.27947999999997],[-83.18958,35.278689999999976],[-83.18851,35.27559],[-83.1888,35.27334999999999],[-83.19029,35.27091],[-83.18979,35.26910999999999],[-83.19053,35.267759999999996],[-83.19031,35.26356000000003],[-83.19447,35.26037000000002],[-83.1943,35.25897],[-83.19648,35.25832],[-83.19868,35.25625999999997],[-83.19934000000002,35.25525],[-83.19948,35.25211000000001],[-83.20042,35.25091999999998],[-83.20234,35.251099999999994],[-83.20562,35.25041000000005],[-83.20688,35.24936999999999],[-83.2081,35.24965999999998],[-83.20988,35.24909999999999],[-83.21137,35.246830000000024],[-83.21295,35.246269999999996],[-83.2152262623498,35.244394927498824],[-83.21965,35.24357],[-83.22161,35.242509999999974],[-83.22384123985707,35.239145452731776],[-83.22414,35.23895],[-83.2240683202502,35.23880301403461],[-83.22413,35.23870999999996],[-83.22784,35.23858],[-83.23275,35.240220000000015],[-83.23383000000001,35.23969000000001],[-83.23586,35.24003000000001],[-83.23813,35.23920999999999],[-83.24294,35.23887000000003],[-83.24318,35.24348999999999],[-83.24425,35.244769999999995],[-83.24504,35.248210000000036],[-83.24549,35.25504000000001],[-83.24397,35.256659999999954]]]}},{"type":"Feature","properties":{"id":"CC-SPD-1830","name":"Speedwell","basin_id":"CC-SPD-1830","coverage":"incremental","area_mi2":0.261,"area_km2":0.676,"pour_point_lat":35.28534,"pour_point_lon":-83.18393,"note":"disjoint local drainage area \u2014 upstream sub-basins removed","excludes_upstream":["CC-MS-1100","CC-TIL-705"]},"geometry":{"type":"MultiPolygon","coordinates":[[[[-83.19321985654389,35.29094215926913],[-83.19094000000001,35.29150999999999],[-83.19070415483361,35.291770776406956],[-83.19016,35.29195],[-83.18609000000001,35.2911],[-83.18526,35.290469999999964],[-83.18527,35.28881999999997],[-83.18341,35.28788999999998],[-83.18434,35.28637],[-83.18376,35.28483],[-83.18462,35.28405],[-83.18395,35.28267999999998],[-83.18172,35.28234000000003],[-83.17956,35.27952999999999],[-83.18107,35.281370000000045],[-83.18356,35.28103999999999],[-83.18523,35.28222000000001],[-83.18613,35.282019999999996],[-83.18604,35.28038],[-83.18803,35.279889999999995],[-83.18817178958594,35.27978022972257],[-83.188,35.28112999999997],[-83.18693,35.28198999999998],[-83.18698,35.28298000000001],[-83.18904,35.283739999999995],[-83.189,35.28497999999998],[-83.19131,35.286879999999975],[-83.19353,35.290839999999996],[-83.19321985654389,35.29094215926913]]],[[[-83.19944632472956,35.252865310492076],[-83.19934000000002,35.25525],[-83.19868,35.25625999999997],[-83.19944632472956,35.252865310492076]]],[[[-83.20406,35.290150000000025],[-83.20739,35.28846000000001],[-83.20787244218735,35.288413547145105],[-83.20406,35.290150000000025]]],[[[-83.22307,35.23965],[-83.22384123985707,35.239145452731776],[-83.22161,35.242509999999974],[-83.22307,35.23965]]]]}},{"type":"Feature","properties":{"id":"CC-COX-097","name":"Cox Branch","basin_id":"CC-COX-097","coverage":"incremental","area_mi2":0.969,"area_km2":2.51,"pour_point_lat":35.3018,"pour_point_lon":-83.18324,"note":"headwater \u2014 nothing upstream to remove","excludes_upstream":null},"geometry":{"type":"Polygon","coordinates":[[[-83.21328,35.29138999999999],[-83.21027,35.293479999999974],[-83.20818,35.29603000000001],[-83.2059,35.29659999999999],[-83.20212000000001,35.299449999999986],[-83.19922,35.29972000000001],[-83.19757,35.300929999999966],[-83.19497,35.30127],[-83.19086,35.303559999999976],[-83.18923,35.30319999999999],[-83.18741,35.30104],[-83.18608,35.30257000000001],[-83.18417,35.30254999999998],[-83.18128,35.29918999999998],[-83.18125,35.298610000000004],[-83.184,35.297439999999966],[-83.18543,35.29581999999997],[-83.18712,35.29534999999998],[-83.18725,35.29403],[-83.18971,35.29287],[-83.19094000000001,35.29150999999999],[-83.1935992725381,35.29084765370852],[-83.19869,35.29141],[-83.19976,35.29070999999998],[-83.20406,35.290150000000025],[-83.20787244218735,35.288413547145105],[-83.21009,35.28820000000002],[-83.21377,35.28915],[-83.21328,35.29138999999999]]]}},{"type":"Feature","properties":{"id":"CC-LB-171","name":"Long Branch","basin_id":"CC-LB-171","coverage":"incremental","area_mi2":1.707,"area_km2":4.42,"pour_point_lat":35.30819,"pour_point_lon":-83.1877,"note":"headwater \u2014 nothing upstream to remove","excludes_upstream":null},"geometry":{"type":"Polygon","coordinates":[[[-83.22564,35.29492],[-83.22291,35.29659],[-83.22001,35.300980000000024],[-83.21449,35.301249999999996],[-83.2145,35.30331],[-83.21414,35.30422999999999],[-83.21296,35.304610000000004],[-83.21228,35.30702000000001],[-83.20769,35.30792],[-83.20623,35.308880000000016],[-83.20496,35.311480000000046],[-83.20543,35.312870000000004],[-83.20485,35.313300000000005],[-83.20117,35.31416999999999],[-83.20113,35.313430000000004],[-83.19913,35.31169000000002],[-83.19618,35.31104999999999],[-83.19408,35.31136999999999],[-83.1918,35.31004],[-83.18961,35.310610000000025],[-83.18807,35.30992],[-83.18757,35.30804],[-83.18845,35.30562000000001],[-83.18777,35.304159999999996],[-83.18813,35.30332000000003],[-83.19086,35.303559999999976],[-83.19497,35.30127],[-83.19638,35.30138999999999],[-83.19704568860077,35.30099856852244],[-83.19757,35.300929999999966],[-83.19922,35.29972000000001],[-83.20212000000001,35.299449999999986],[-83.2022246929338,35.2993710691476],[-83.20232,35.29935999999998],[-83.2059,35.29659999999999],[-83.20818,35.29603000000001],[-83.20847463181737,35.29567053291828],[-83.20867,35.29560000000002],[-83.21027,35.293479999999974],[-83.21328,35.29138999999999],[-83.21377,35.28915],[-83.21374479483792,35.289143493689],[-83.21376,35.28907000000002],[-83.21386687619399,35.28903930748831],[-83.21396,35.289060000000006],[-83.21883795058413,35.287611593343],[-83.22229,35.28662],[-83.22234727800335,35.28656941739073],[-83.22248,35.28652999999999],[-83.22258405222799,35.286360319441506],[-83.22306,35.28594],[-83.22538,35.288079999999994],[-83.22564,35.29492]]]}},{"type":"Feature","properties":{"id":"CC-WCU-2260","name":"WCU Campus","basin_id":"CC-WCU-2260","coverage":"incremental","area_mi2":1.571,"area_km2":4.068,"pour_point_lat":35.30978,"pour_point_lon":-83.18745,"note":"disjoint local drainage area \u2014 upstream sub-basins removed","excludes_upstream":["CC-SPD-1830","CC-COX-097","CC-LB-171"]},"geometry":{"type":"MultiPolygon","coordinates":[[[[-83.18595,35.30983],[-83.18329,35.308929999999975],[-83.18251,35.30946],[-83.17969,35.30939],[-83.17820000000002,35.30391000000001],[-83.17642,35.30265000000002],[-83.17641,35.30034],[-83.17533,35.29898000000001],[-83.17433,35.29522],[-83.17239,35.29265],[-83.17002,35.291649999999976],[-83.16918,35.28903999999999],[-83.16692,35.28805],[-83.1667,35.28566000000001],[-83.16775,35.28472000000003],[-83.16937,35.280869999999986],[-83.16871,35.27791999999998],[-83.16734,35.27664999999998],[-83.16693405002262,35.2745410409172],[-83.17415,35.276],[-83.17761,35.278769999999994],[-83.17956,35.27952999999999],[-83.18172,35.28234000000003],[-83.18395,35.28267999999998],[-83.18462,35.28405],[-83.18376,35.28483],[-83.18434,35.28637],[-83.18341,35.28788999999998],[-83.18527,35.28881999999997],[-83.18526,35.290469999999964],[-83.18609000000001,35.2911],[-83.19016,35.29195],[-83.19070415483361,35.291770776406956],[-83.18971,35.29287],[-83.18725,35.29403],[-83.18712,35.29534999999998],[-83.18543,35.29581999999997],[-83.184,35.297439999999966],[-83.18125,35.298610000000004],[-83.18128,35.29918999999998],[-83.18417,35.30254999999998],[-83.18608,35.30257000000001],[-83.18741,35.30104],[-83.18923,35.30319999999999],[-83.19086,35.303559999999976],[-83.18813,35.30332000000003],[-83.18777,35.304159999999996],[-83.18845,35.30562000000001],[-83.18757,35.30804],[-83.18807,35.30992],[-83.18808198293009,35.30992536909626],[-83.18595,35.30983]]],[[[-83.19638,35.30138999999999],[-83.19497,35.30127],[-83.19704568860077,35.30099856852244],[-83.19638,35.30138999999999]]],[[[-83.21374479483792,35.289143493689],[-83.21009,35.28820000000002],[-83.21386687619399,35.28903930748831],[-83.21376,35.28907000000002],[-83.21374479483792,35.289143493689]]],[[[-83.22538,35.288079999999994],[-83.22306,35.28594],[-83.22258405222799,35.28636031944148],[-83.22297442530687,35.285723721195424],[-83.22538,35.288079999999994]]],[[[-83.22401012296459,35.23849791324876],[-83.22335000000001,35.23733],[-83.22318,35.23411999999998],[-83.22401012296459,35.23849791324876]]],[[[-83.22784,35.23858],[-83.22413,35.23870999999996],[-83.22403965111283,35.23855015463678],[-83.22784,35.23858]]]]}},{"type":"Feature","properties":{"id":"CC-MOUTH-2340","name":"Cullowhee Creek mouth","basin_id":"CC-MOUTH-2340","coverage":"incremental","area_mi2":0.81,"area_km2":2.099,"pour_point_lat":35.31709,"pour_point_lon":-83.18037,"note":"disjoint local drainage area \u2014 upstream sub-basins removed","excludes_upstream":["CC-WCU-2260"]},"geometry":{"type":"MultiPolygon","coordinates":[[[[-83.1993,35.31498],[-83.19607,35.31863999999998],[-83.19403,35.31812999999999],[-83.19359,35.31930000000001],[-83.19202,35.32018],[-83.19199,35.32159],[-83.1879,35.320330000000006],[-83.18353,35.32146999999996],[-83.18295,35.31809999999997],[-83.18029,35.31721000000006],[-83.18083,35.31602999999998],[-83.18027,35.31489999999999],[-83.18204,35.31401000000003],[-83.18258,35.31275],[-83.1805,35.31142000000003],[-83.17605,35.31116],[-83.17413,35.30900000000001],[-83.17395000000002,35.30744000000001],[-83.17269,35.306409999999985],[-83.17503,35.30493],[-83.17525000000002,35.303349999999995],[-83.17641965466677,35.30257023022604],[-83.17642,35.30265000000002],[-83.17820000000002,35.30391000000001],[-83.17969,35.30939],[-83.18251,35.30946],[-83.18329,35.308929999999975],[-83.18595,35.30983],[-83.18808198293009,35.30992536909626],[-83.18961,35.310610000000025],[-83.1918,35.31004],[-83.19408,35.31136999999999],[-83.19618,35.31104999999999],[-83.19913,35.31169000000002],[-83.20113,35.313430000000004],[-83.20117,35.31416999999999],[-83.20197,35.31405999999996],[-83.20270593326534,35.31380690121669],[-83.20271334000148,35.31380515018911],[-83.1993,35.31498]]],[[[-83.1762074618994,35.300084956243545],[-83.17641,35.30034],[-83.17641963520586,35.302565734875344],[-83.1762074618994,35.300084956243545]]]]}}]}