{
  "type": "FeatureCollection",
  "name": "Cullowhee-Weather modeled gages",
  "crs": {
    "type": "name",
    "properties": {
      "name": "urn:ogc:def:crs:OGC:1.3:CRS84"
    }
  },
  "features": [
    {
      "type": "Feature",
      "geometry": {
        "type": "Point",
        "coordinates": [
          -83.1815,
          35.2887
        ]
      },
      "properties": {
        "SITE_ID": "JCEM-CULCK-01",
        "NAME": "Cullowhee Creek (Jackson Co. model)",
        "COUNTY": "JACKSON",
        "OWNER": "Jackson County / Cullowhee-Weather",
        "LATITUDE": 35.2887,
        "LONGITUDE": -83.1815,
        "GAGE_DATUM": 2125.0,
        "River_Basin": "Little Tennessee",
        "WFO": "GSP",
        "SRV_INT": 0.5,
        "IN_SERVICE": 1,
        "HYDRO_ALL_STAGE": 2.4,
        "CURRENT_ELEVATION_MSL": null,
        "BANK_FULL": null,
        "MINOR": null,
        "MODERATE": null,
        "MAJOR": null,
        "CONDITION": 1,
        "CONDITION_TXT": "Normal",
        "TREND": "Constant",
        "LAST_UPDATED": "2026-07-28T22:24:00.378916+00:00",
        "FORECASTPT": "False",
        "AGE_MINUTES": 0.0,
        "IS_STALE": false,
        "DATA_SOURCE": "GOV",
        "DATUM_VERIFIED": false,
        "DATUM_SOURCE": "NCEM FIMAN site 25380; disputed by NWS CUCN7 by 1.00 ft",
        "ELEVATION_NOTE": "MSL fields suppressed: gage datum unresolved (NCEM 2125.0 vs NWS 2126.0). Use HYDRO_ALL_STAGE and the FX_*_STAGE thresholds.",
        "REFERENCE_GAGE": "25380",
        "AHPS_URL": "https://water.noaa.gov/gauges/cucn7",
        "FX_SHADOW_MODE": true,
        "FX_LEVEL": "NORMAL",
        "FX_LEVEL_BASIS": "Local basin model (TR-55 / Manning). NOT an NWS flood category. Local EMERGENCY (stage 11.0 ft) fires below the state MAJOR category (stage 15.0 ft) for the co-located NCEM gage 25380.",
        "FX_WATCH_STAGE": 7.0,
        "FX_WARNING_STAGE": 9.0,
        "FX_EMERGENCY_STAGE": 11.0,
        "FX_RISE_RATE_FT_HR": 0.0,
        "FX_HOURS_TO_NEXT": null,
        "FX_NEXT_LEVEL": "WATCH",
        "FX_PEAK_CFS": 180.0,
        "FX_DISCHARGE_CFS": 42.0,
        "FX_WARN_PROBABILITY": 0.03
      }
    }
  ]
}